[{"OBJECT_ID":"1965-108AJ","OBJECT_NAME":"TITAN 3C TRANSTAGE DEB","NORAD_CAT_ID":"26050","OBJECT_TYPE":"DEBRIS","PERIOD":"533.785","INCLINATION":"26.0670","ECCENTRICITY":"0.66162390","MEAN_MOTION":"2.69771427","TLE_LINE1":"1 26050U 65108AJ  21271.90852487 -.00000131  00000-0 -62996-2 0  9990","TLE_LINE2":"2 26050  26.0670 175.8394 6616239 230.5852  49.5858  2.69771427219951"},{"OBJECT_ID":"1999-040E","OBJECT_NAME":"IUS DEB","NORAD_CAT_ID":"26076","OBJECT_TYPE":"DEBRIS","PERIOD":"221.414","INCLINATION":"28.4656","ECCENTRICITY":"0.45264020","MEAN_MOTION":"6.50364860","TLE_LINE1":"1 26076U 99040E   21271.32512666  .00006382  00000-0  37225-3 0  9998","TLE_LINE2":"2 26076  28.4656 260.6818 4526402 101.2069 311.3681  6.50364860413860"},{"OBJECT_ID":"2000-016C","OBJECT_NAME":"ARIANE 5 DEB (SYLDA)","NORAD_CAT_ID":"26109","OBJECT_TYPE":"DEBRIS","PERIOD":"633.249","INCLINATION":"6.5653","ECCENTRICITY":"0.71540650","MEAN_MOTION":"2.27398665","TLE_LINE1":"1 26109U 00016C   21272.40715069 -.00000037  00000-0  21834-2 0  9992","TLE_LINE2":"2 26109   6.5653 216.8013 7154065 342.5704 238.9922  2.27398665178525"},{"OBJECT_ID":"2000-046C","OBJECT_NAME":"ARIANE 44LP DEB (SPELDA)","NORAD_CAT_ID":"26471","OBJECT_TYPE":"DEBRIS","PERIOD":"321.111","INCLINATION":"3.6004","ECCENTRICITY":"0.55833420","MEAN_MOTION":"4.48443407","TLE_LINE1":"1 26471U 00046C   21272.00619260  .00000049  00000-0  12143-3 0  9995","TLE_LINE2":"2 26471   3.6004  13.2602 5583342  23.6652 354.2713  4.48443407275055"},{"OBJECT_ID":"2000-054D","OBJECT_NAME":"ARIANE 5 DEB (SYLDA)","NORAD_CAT_ID":"26497","OBJECT_TYPE":"DEBRIS","PERIOD":"633.214","INCLINATION":"7.3212","ECCENTRICITY":"0.71559960","MEAN_MOTION":"2.27411267","TLE_LINE1":"1 26497U 00054D   21271.74010220  .00000051  00000-0  79943-3 0  9997","TLE_LINE2":"2 26497   7.3212  85.7833 7155996 209.3263 150.6830  2.27411267174519"},{"OBJECT_ID":"1965-108AL","OBJECT_NAME":"TITAN 3C TRANSTAGE DEB","NORAD_CAT_ID":"26525","OBJECT_TYPE":"DEBRIS","PERIOD":"511.274","INCLINATION":"26.2324","ECCENTRICITY":"0.66963050","MEAN_MOTION":"2.81649095","TLE_LINE1":"1 26525U 65108AL  21269.57329233 -.00000172  00000-0 -71969-3 0  9991","TLE_LINE2":"2 26525  26.2324 216.0810 6696305 168.3406 359.3161  2.81649095221986"},{"OBJECT_ID":"1965-108AM","OBJECT_NAME":"TITAN 3C TRANSTAGE DEB","NORAD_CAT_ID":"26526","OBJECT_TYPE":"DEBRIS","PERIOD":"470.068","INCLINATION":"27.1892","ECCENTRICITY":"0.65332130","MEAN_MOTION":"3.06338825","TLE_LINE1":"1 26526U 65108AM  21270.62711635  .00000182  00000-0  21180-2 0  9999","TLE_LINE2":"2 26526  27.1892 111.4289 6533213  36.1781   1.1550  3.06338825 26588"},{"OBJECT_ID":"1965-108AN","OBJECT_NAME":"TITAN 3C TRANSTAGE DEB","NORAD_CAT_ID":"26527","OBJECT_TYPE":"DEBRIS","PERIOD":"531.608","INCLINATION":"26.8364","ECCENTRICITY":"0.67717560","MEAN_MOTION":"2.70876365","TLE_LINE1":"1 26527U 65108AN  21268.40296484 -.00000090  00000-0  60898-3 0  9992","TLE_LINE2":"2 26527  26.8364 307.4317 6771756  46.4758 357.0841  2.70876365222986"},{"OBJECT_ID":"1965-108AP","OBJECT_NAME":"TITAN 3C TRANSTAGE DEB","NORAD_CAT_ID":"26528","OBJECT_TYPE":"DEBRIS","PERIOD":"537.317","INCLINATION":"27.1477","ECCENTRICITY":"0.66898930","MEAN_MOTION":"2.67998429","TLE_LINE1":"1 26528U 65108AP  21253.13646828 -.00000017  00000-0 -13950-3 0  9995","TLE_LINE2":"2 26528  27.1477 239.2767 6689893 266.6510  29.8444  2.67998429222232"},{"OBJECT_ID":"1965-108AR","OBJECT_NAME":"TITAN 3C TRANSTAGE DEB","NORAD_CAT_ID":"26530","OBJECT_TYPE":"DEBRIS","PERIOD":"512.372","INCLINATION":"26.7899","ECCENTRICITY":"0.67791690","MEAN_MOTION":"2.81045697","TLE_LINE1":"1 26530U 65108AR  21271.12772030  .00000236  00000-0  55751-3 0  9998","TLE_LINE2":"2 26530  26.7899 163.7114 6779169 106.4632 333.1356  2.81045697227972"},{"OBJECT_ID":"1979-104N","OBJECT_NAME":"ARIANE 1 DEB","NORAD_CAT_ID":"26532","OBJECT_TYPE":"DEBRIS","PERIOD":"381.286","INCLINATION":"15.8404","ECCENTRICITY":"0.59147320","MEAN_MOTION":"3.77669475","TLE_LINE1":"1 26532U 79104N   21264.43935263  .00000712  00000-0  10977-1 0  9994","TLE_LINE2":"2 26532  15.8404  52.4077 5914732 149.1481 314.0203  3.77669475305225"},{"OBJECT_ID":"1979-104Q","OBJECT_NAME":"ARIANE 1 DEB","NORAD_CAT_ID":"26534","OBJECT_TYPE":"DEBRIS","PERIOD":"577.833","INCLINATION":"15.5642","ECCENTRICITY":"0.70290300","MEAN_MOTION":"2.49206927","TLE_LINE1":"1 26534U 79104Q   21267.01824255  .00000505  00000-0  20921-2 0  9992","TLE_LINE2":"2 26534  15.5642 176.2460 7029030  84.4652 345.1097  2.49206927192980"},{"OBJECT_ID":"1979-104R","OBJECT_NAME":"ARIANE 1 DEB","NORAD_CAT_ID":"26535","OBJECT_TYPE":"DEBRIS","PERIOD":"380.912","INCLINATION":"20.1623","ECCENTRICITY":"0.60777330","MEAN_MOTION":"3.78040325","TLE_LINE1":"1 26535U 79104R   21269.49044795  .00000897  00000-0  17759-2 0  9999","TLE_LINE2":"2 26535  20.1623  38.1481 6077733 232.2752  55.6476  3.78040325287684"},{"OBJECT_ID":"2000-072F","OBJECT_NAME":"ARIANE 5 DEB (SYLDA)","NORAD_CAT_ID":"26613","OBJECT_TYPE":"DEBRIS","PERIOD":"709.334","INCLINATION":"6.1102","ECCENTRICITY":"0.73371530","MEAN_MOTION":"2.03007305","TLE_LINE1":"1 26613U 00072F   21271.62902299 -.00000143  00000-0  10005-2 0  9996","TLE_LINE2":"2 26613   6.1102 236.3103 7337153 110.1706  63.0056  2.03007305154799"},{"OBJECT_ID":"1966-077Z","OBJECT_NAME":"OPS 0856 DEB","NORAD_CAT_ID":"26671","OBJECT_TYPE":"DEBRIS","PERIOD":"162.982","INCLINATION":"87.7913","ECCENTRICITY":"0.22913890","MEAN_MOTION":"8.83531689","TLE_LINE1":"1 26671U 66077Z   21270.83460823  .00003012  00000-0  67466-1 0  9990","TLE_LINE2":"2 26671  87.7913 323.8653 2291389 162.6169 206.8622  8.83531689389023"},{"OBJECT_ID":"1968-055F","OBJECT_NAME":"DELTA 1 DEB","NORAD_CAT_ID":"26672","OBJECT_TYPE":"DEBRIS","PERIOD":"128.673","INCLINATION":"120.5483","ECCENTRICITY":"0.17236960","MEAN_MOTION":"11.19111942","TLE_LINE1":"1 26672U 68055F   21270.83059133  .00001743  00000-0  16722-2 0  9996","TLE_LINE2":"2 26672 120.5483 207.1360 1723696  47.3938 326.0067 11.19111942354135"},{"OBJECT_ID":"1980-050G","OBJECT_NAME":"COSMOS 1188 DEB","NORAD_CAT_ID":"26677","OBJECT_TYPE":"DEBRIS","PERIOD":"745.550","INCLINATION":"72.4807","ECCENTRICITY":"0.53600220","MEAN_MOTION":"1.93146042","TLE_LINE1":"1 26677U 80050G   21268.08572727  .00000053  00000-0  00000-0 0  9996","TLE_LINE2":"2 26677  72.4807 252.3863 5360022 220.6827 189.5919  1.93146042195751"},{"OBJECT_ID":"1981-071L","OBJECT_NAME":"COSMOS 1285 DEB","NORAD_CAT_ID":"26680","OBJECT_TYPE":"DEBRIS","PERIOD":"726.402","INCLINATION":"63.9719","ECCENTRICITY":"0.66267850","MEAN_MOTION":"1.98237229","TLE_LINE1":"1 26680U 81071L   21267.22846414 -.00000649  00000-0  00000-0 0  9998","TLE_LINE2":"2 26680  63.9719 218.4351 6626785  46.3957 352.2188  1.98237229173763"},{"OBJECT_ID":"1984-023G","OBJECT_NAME":"ARIANE 1 DEB","NORAD_CAT_ID":"26681","OBJECT_TYPE":"DEBRIS","PERIOD":"555.253","INCLINATION":"8.8306","ECCENTRICITY":"0.68730760","MEAN_MOTION":"2.59341346","TLE_LINE1":"1 26681U 84023G   21272.11346575 -.00000603  00000-0 -70967-2 0  9998","TLE_LINE2":"2 26681   8.8306 115.5874 6873076  12.6955 205.1952  2.59341346215926"},{"OBJECT_ID":"1985-056H","OBJECT_NAME":"ARIANE 1 DEB","NORAD_CAT_ID":"26683","OBJECT_TYPE":"DEBRIS","PERIOD":"646.483","INCLINATION":"5.5218","ECCENTRICITY":"0.70883090","MEAN_MOTION":"2.22743847","TLE_LINE1":"1 26683U 85056H   21267.00489625 -.00000035  00000-0  62826-2 0  9996","TLE_LINE2":"2 26683   5.5218 247.8420 7088309  90.4607 353.0967  2.22743847175359"},{"OBJECT_ID":"1985-056J","OBJECT_NAME":"ARIANE 1 DEB","NORAD_CAT_ID":"26684","OBJECT_TYPE":"DEBRIS","PERIOD":"609.668","INCLINATION":"6.1549","ECCENTRICITY":"0.70836200","MEAN_MOTION":"2.36194137","TLE_LINE1":"1 26684U 85056J   21271.37740324 -.00000266  00000-0 -43280-3 0  9999","TLE_LINE2":"2 26684   6.1549  36.6670 7083620 137.9034 151.8220  2.36194137196319"},{"OBJECT_ID":"1985-056K","OBJECT_NAME":"ARIANE 1 DEB","NORAD_CAT_ID":"26685","OBJECT_TYPE":"DEBRIS","PERIOD":"665.646","INCLINATION":"7.7021","ECCENTRICITY":"0.70494070","MEAN_MOTION":"2.16331344","TLE_LINE1":"1 26685U 85056K   21270.49500643 -.00000044  00000-0  00000+0 0  9992","TLE_LINE2":"2 26685   7.7021 303.9573 7049407 307.8502   7.1471  2.16331344168082"},{"OBJECT_ID":"1989-006C","OBJECT_NAME":"ARIANE 2 DEB","NORAD_CAT_ID":"26717","OBJECT_TYPE":"DEBRIS","PERIOD":"636.533","INCLINATION":"8.2451","ECCENTRICITY":"0.71582180","MEAN_MOTION":"2.26225535","TLE_LINE1":"1 26717U 89006C   21272.13649135 -.00000262  00000-0 -26936-3 0  9993","TLE_LINE2":"2 26717   8.2451  80.2756 7158218  95.2202 334.8735  2.26225535171469"},{"OBJECT_ID":"2001-011D","OBJECT_NAME":"ARIANE 5 DEB (SYLDA)","NORAD_CAT_ID":"26722","OBJECT_TYPE":"DEBRIS","PERIOD":"645.989","INCLINATION":"1.4975","ECCENTRICITY":"0.70719230","MEAN_MOTION":"2.22914037","TLE_LINE1":"1 26722U 01011D   21271.78292630  .00000081  00000-0  11973-1 0  9993","TLE_LINE2":"2 26722   1.4975 201.7603 7071923  23.5822  16.4672  2.22914037167478"},{"OBJECT_ID":"1989-006D","OBJECT_NAME":"ARIANE 2 DEB","NORAD_CAT_ID":"26726","OBJECT_TYPE":"DEBRIS","PERIOD":"633.909","INCLINATION":"8.3311","ECCENTRICITY":"0.71743380","MEAN_MOTION":"2.27161985","TLE_LINE1":"1 26726U 89006D   21271.57784644  .00000012  00000-0  13360-2 0  9992","TLE_LINE2":"2 26726   8.3311  39.0216 7174338 177.6670 255.8048  2.27161985172013"},{"OBJECT_ID":"1989-006E","OBJECT_NAME":"ARIANE 2 DEB","NORAD_CAT_ID":"26727","OBJECT_TYPE":"DEBRIS","PERIOD":"631.575","INCLINATION":"8.4761","ECCENTRICITY":"0.71652870","MEAN_MOTION":"2.28001579","TLE_LINE1":"1 26727U 89006E   21271.72963602  .00000081  00000-0  21438-2 0  9994","TLE_LINE2":"2 26727   8.4761  40.8978 7165287 171.3199 252.8071  2.28001579172442"}]